NORAD_CAT_ID,OBJECT_NAME,OBJECT_TYPE,EPOCH,MEAN_MOTION,ECCENTRICITY,INCLINATION,RA_OF_ASC_NODE,ARG_OF_PERICENTER,MEAN_ANOMALY,BSTAR,MEAN_MOTION_DOT,MEAN_MOTION_DDOT,TLE_LINE0,TLE_LINE1,TLE_LINE2,SEMIMAJOR_AXIS,PERIOD,APOGEE,PERIGEE,DECAYED
54164.0,STARLINK-5278,PAYLOAD,2023-05-28 13:26:47,15.08844237,8.46e-05,53.2166,245.9127,87.6609,272.448,5.5368e-05,5.94e-06,0.0,0 STARLINK-5278,1 54164U 22141H   23148.56026739  .00000594  00000-0  55368-4 0  9995,2 54164  53.2166 245.9127 0000846  87.6609 272.4480 15.08844237 32452,6917.867,95.437,540.318,539.147,0.0
54164.0,STARLINK-5278,PAYLOAD,2023-05-29 10:06:48,15.08837838,8.25e-05,53.2166,242.0471,84.4686,275.6401,3.9012e-05,3.33e-06,0.0,0 STARLINK-5278,1 54164U 22141H   23149.42139169  .00000333  00000-0  39012-4 0  9992,2 54164  53.2166 242.0471 0000825  84.4686 275.6401 15.08837838 32580,6917.887,95.438,540.323,539.181,0.0
54164.0,STARLINK-5278,PAYLOAD,2023-05-29 11:42:11,15.08838489,8.26e-05,53.2166,241.7497,83.9568,276.1518,4.2731e-05,3.92e-06,0.0,0 STARLINK-5278,1 54164U 22141H   23149.48763108  .00000392  00000-0  42731-4 0  9991,2 54164  53.2166 241.7497 0000826  83.9568 276.1518 15.08838489 32597,6917.885,95.438,540.321,539.179,0.0
54164.0,STARLINK-5278,PAYLOAD,2023-05-30 11:32:59,15.08834418,9.26e-05,53.2168,237.2891,85.9703,274.1395,-4.3443e-05,-9.79e-06,0.0,0 STARLINK-5278,1 54164U 22141H   23150.48123843 -.00000979  00000-0 -43443-4 0  9993,2 54164  53.2168 237.2891 0000926  85.9703 274.1395 15.08834418 32747,6917.897,95.438,540.403,539.122,0.0
54164.0,STARLINK-5278,PAYLOAD,2023-05-30 14:43:45,15.08837109,9.5e-05,53.2166,236.6946,88.2121,271.898,-1.6919e-05,-5.57e-06,0.0,0 STARLINK-5278,1 54164U 22141H   23150.61371612 -.00000557  00000-0 -16919-4 0  9997,2 54164  53.2166 236.6946 0000950  88.2121 271.8980 15.08837109 32762,6917.889,95.438,540.411,539.097,0.0
54164.0,STARLINK-5278,PAYLOAD,2023-05-31 09:48:22,15.08843121,9.13e-05,53.2174,233.1276,94.1051,266.0045,6.1824e-05,6.96e-06,0.0,0 STARLINK-5278,1 54164U 22141H   23151.40859023  .00000696  00000-0  61824-4 0  9999,2 54164  53.2174 233.1276 0000913  94.1051 266.0045 15.08843121 32888,6917.871,95.437,540.367,539.104,0.0
54164.0,STARLINK-5278,PAYLOAD,2023-05-31 12:59:08,15.08844002,9.26e-05,53.2173,232.5328,92.8004,267.3094,8.6282e-05,1.086e-05,0.0,0 STARLINK-5278,1 54164U 22141H   23151.54106872  .00001086  00000-0  86282-4 0  9990,2 54164  53.2173 232.5328 0000926  92.8004 267.3094 15.08844002 32905,6917.868,95.437,540.374,539.093,0.0
54164.0,STARLINK-5278,PAYLOAD,2023-05-31 14:34:31,15.08845683,9.28e-05,53.2169,232.2348,89.8171,270.2928,9.7708e-05,1.268e-05,0.0,0 STARLINK-5278,1 54164U 22141H   23151.60730719  .00001268  00000-0  97708-4 0  9997,2 54164  53.2169 232.2348 0000928  89.8171 270.2928 15.08845683 32918,6917.863,95.437,540.37,539.086,0.0
54164.0,STARLINK-5278,PAYLOAD,2023-05-31 22:31:27,15.08838228,9.52e-05,53.2177,230.7472,79.0097,281.1002,4.8438e-05,4.83e-06,0.0,0 STARLINK-5278,1 54164U 22141H   23151.93851371  .00000483  00000-0  48438-4 0  9995,2 54164  53.2177 230.7472 0000952  79.0097 281.1002 15.08838228 32969,6917.886,95.438,540.409,539.092,0.0
54164.0,STARLINK-5278,PAYLOAD,2023-06-01 11:14:32,15.08836522,9.42e-05,53.2165,228.3695,79.0719,281.038,3.2298e-05,2.26e-06,0.0,0 STARLINK-5278,1 54164U 22141H   23152.46843718  .00000226  00000-0  32298-4 0  9992,2 54164  53.2165 228.3695 0000942  79.0719 281.0380 15.08836522 33049,6917.891,95.438,540.408,539.104,0.0
54164.0,STARLINK-5278,PAYLOAD,2023-06-02 09:29:56,15.08840635,9.44e-05,53.2162,224.2058,73.9254,286.1842,1.3089e-05,-7.9e-07,0.0,0 STARLINK-5278,1 54164U 22141H   23153.39579598 -.00000079  00000-0  13089-4 0  9991,2 54164  53.2162 224.2058 0000944  73.9254 286.1842 15.08840635 33187,6917.878,95.438,540.396,539.09,0.0
54164.0,STARLINK-5278,PAYLOAD,2023-06-02 11:05:19,15.08841573,9.74e-05,53.2169,223.9096,70.0534,290.0563,1.0756e-06,-2.71e-06,0.0,0 STARLINK-5278,1 54164U 22141H   23153.46203640 -.00000271  00000-0  10756-5 0  9994,2 54164  53.2169 223.9096 0000974  70.0534 290.0563 15.08841573 33191,6917.876,95.437,540.414,539.067,0.0
54164.0,STARLINK-5278,PAYLOAD,2023-06-03 10:56:07,15.08837756,9.12e-05,53.2167,219.4487,75.5531,284.5562,3.4388e-05,2.6e-06,0.0,0 STARLINK-5278,1 54164U 22141H   23154.45563833  .00000260  00000-0  34388-4 0  9990,2 54164  53.2167 219.4487 0000912  75.5531 284.5562 15.08837756 33344,6917.887,95.438,540.383,539.121,0.0
54164.0,STARLINK-5278,PAYLOAD,2023-06-03 14:06:53,15.08839418,8.65e-05,53.2164,218.8532,82.5114,277.5976,4.3333e-05,4.02e-06,0.0,0 STARLINK-5278,1 54164U 22141H   23154.58811655  .00000402  00000-0  43333-4 0  9990,2 54164  53.2164 218.8532 0000865  82.5114 277.5976 15.08839418 33367,6917.882,95.438,540.346,539.149,0.0
54164.0,STARLINK-5278,PAYLOAD,2023-06-04 09:11:31,15.08837956,7.95e-05,53.2159,215.2843,87.4878,272.6205,3.5961e-05,2.85e-06,0.0,0 STARLINK-5278,1 54164U 22141H   23155.38299840  .00000285  00000-0  35961-4 0  9992,2 54164  53.2159 215.2843 0000795  87.4878 272.6205 15.08837956 33489,6917.887,95.438,540.302,539.202,0.0
54164.0,STARLINK-5278,PAYLOAD,2023-06-05 02:40:45,15.08838091,7.97e-05,53.2157,212.0131,85.3927,274.7156,5.7307e-05,6.24e-06,0.0,0 STARLINK-5278,1 54164U 22141H   23156.11163792  .00000624  00000-0  57307-4 0  9995,2 54164  53.2157 212.0131 0000797  85.3927 274.7156 15.08838091 33597,6917.886,95.438,540.303,539.2,0.0
54164.0,STARLINK-5278,PAYLOAD,2023-06-05 10:37:40,15.08842276,8.05e-05,53.2158,210.5267,78.1087,281.9995,5.7901e-05,6.34e-06,0.0,0 STARLINK-5278,1 54164U 22141H   23156.44283550  .00000634  00000-0  57901-4 0  9997,2 54164  53.2158 210.5267 0000805  78.1087 281.9995 15.08842276 33645,6917.873,95.437,540.295,539.182,0.0
54164.0,STARLINK-5278,PAYLOAD,2023-06-06 08:53:05,15.08833092,8.3e-05,53.2158,206.3639,82.9042,277.2044,9.7189e-06,-1.33e-06,0.0,0 STARLINK-5278,1 54164U 22141H   23157.37020487 -.00000133  00000-0  97189-5 0  9996,2 54164  53.2158 206.3639 0000830  82.9042 277.2044 15.08833092 33787,6917.902,95.438,540.341,539.192,0.0
54164.0,STARLINK-5278,PAYLOAD,2023-06-06 10:28:28,15.08834101,8.35e-05,53.2158,206.0665,83.8735,276.2353,1.7554e-05,-8e-08,0.0,0 STARLINK-5278,1 54164U 22141H   23157.43644416 -.00000008  00000-0  17554-4 0  9995,2 54164  53.2158 206.0665 0000835  83.8735 276.2353 15.08834101 33792,6917.898,95.438,540.341,539.186,0.0
54164.0,STARLINK-5278,PAYLOAD,2023-06-07 07:08:29,15.08840403,8.64e-05,53.216,202.2011,82.1593,277.9497,2.3987e-05,9.4e-07,0.0,0 STARLINK-5278,1 54164U 22141H   23158.29756149  .00000094  00000-0  23987-4 0  9998,2 54164  53.2160 202.2011 0000864  82.1593 277.9497 15.08840403 33928,6917.879,95.438,540.342,539.146,0.0
54164.0,STARLINK-5278,PAYLOAD,2023-06-07 11:54:38,15.08842789,8.82e-05,53.2159,201.3092,82.3115,277.7977,5.5826e-05,6.01e-06,0.0,0 STARLINK-5278,1 54164U 22141H   23158.49627892  .00000601  00000-0  55826-4 0  9993,2 54164  53.2159 201.3092 0000882  82.3115 277.7977 15.08842789 33950,6917.872,95.437,540.347,539.127,0.0
54164.0,STARLINK-5278,PAYLOAD,2023-06-07 21:26:55,15.08855506,8.16e-05,53.2159,199.5247,86.7305,273.3781,0.0001982,2.869e-05,0.0,0 STARLINK-5278,1 54164U 22141H   23158.89370363  .00002869  00000-0  19820-3 0  9996,2 54164  53.2159 199.5247 0000816  86.7305 273.3781 15.08855506 34010,6917.833,95.437,540.262,539.133,0.0
54164.0,STARLINK-5278,PAYLOAD,2023-06-08 02:13:07,15.08824581,9.99e-05,53.2159,198.6329,90.173,269.9377,-1.9236e-05,-5.94e-06,0.0,0 STARLINK-5278,1 54164U 22141H   23159.09245019 -.00000594  00000-0 -19236-4 0  9995,2 54164  53.2159 198.6329 0000999  90.1730 269.9377 15.08824581 34048,6917.928,95.439,540.484,539.101,0.0
54164.0,STARLINK-5278,PAYLOAD,2023-06-08 11:45:26,15.08828838,0.0001014,53.2156,196.8487,87.1617,272.9491,4.4927e-08,-2.87e-06,0.0,0 STARLINK-5278,1 54164U 22141H   23159.48989042 -.00000287  00000-0  44927-7 0  9995,2 54164  53.2156 196.8487 0001014  87.1617 272.9491 15.08828838 34106,6917.915,95.438,540.481,539.078,0.0
54164.0,STARLINK-5278,PAYLOAD,2023-06-09 02:03:54,15.08840105,9.05e-05,53.2158,194.1718,85.9821,274.1275,7.7987e-05,9.54e-06,0.0,0 STARLINK-5278,1 54164U 22141H   23160.08604282  .00000954  00000-0  77987-4 0  9992,2 54164  53.2158 194.1718 0000905  85.9821 274.1275 15.08840105 34191,6917.88,95.438,540.371,539.119,0.0
54164.0,STARLINK-5278,PAYLOAD,2023-06-09 11:36:12,15.0885034,9.5e-05,53.2157,192.3876,87.6342,272.4759,0.00010105,1.321e-05,0.0,0 STARLINK-5278,1 54164U 22141H   23160.48347614  .00001321  00000-0  10105-3 0  9996,2 54164  53.2157 192.3876 0000950  87.6342 272.4759 15.08850340 34259,6917.849,95.437,540.371,539.057,0.0
54164.0,STARLINK-5278,PAYLOAD,2023-06-10 01:54:41,15.08845605,0.0001066,53.2154,189.7112,93.1027,267.0087,-7.8272e-05,-1.533e-05,0.0,0 STARLINK-5278,1 54164U 22141H   23161.07964188 -.00001533  00000-0 -78272-4 0  9990,2 54164  53.2154 189.7112 0001066  93.1027 267.0087 15.08845605 34342,6917.863,95.437,540.466,538.991,0.0
54164.0,STARLINK-5278,PAYLOAD,2023-06-10 11:27:00,15.0882949,0.0001055,53.2152,187.9269,91.2549,268.8564,9.748e-05,1.264e-05,0.0,0 STARLINK-5278,1 54164U 22141H   23161.47709186  .00001264  00000-0  97480-4 0  9990,2 54164  53.2152 187.9269 0001055  91.2549 268.8564 15.08829490 34409,6917.913,95.438,540.507,539.048,0.0
54164.0,STARLINK-5278,PAYLOAD,2023-06-10 19:23:56,15.08832161,0.0001082,53.2161,186.44,90.9694,269.1422,0.00011283,1.508e-05,0.0,0 STARLINK-5278,1 54164U 22141H   23161.80829177  .00001508  00000-0  11283-3 0  9997,2 54164  53.2161 186.4400 0001082  90.9694 269.1422 15.08832161 34458,6917.904,95.438,540.518,539.021,0.0
54164.0,STARLINK-5278,PAYLOAD,2023-06-11 01:45:28,15.08839245,9.77e-05,53.216,185.2508,87.4522,272.6582,4.9523e-05,5e-06,0.0,0 STARLINK-5278,1 54164U 22141H   23162.07324906  .00000500  00000-0  49523-4 0  9997,2 54164  53.2160 185.2508 0000977  87.4522 272.6582 15.08839245 34496,6917.883,95.438,540.424,539.072,0.0
